{
  "type": "FeatureCollection",
  "features": [
    {
      "type": "Feature",
      "properties": {
        "norad_id": 43260,
        "name": "GAOFEN-1 03",
        "group": "resource",
        "lat": 13.985890292177162,
        "lon": 45.80159218931566,
        "alt_km": 641.0920740901965,
        "timestamp": "2025-12-16T03:53:26.716519+00:00",
        "meta_object_name": "GAOFEN-1 03",
        "meta_object_id": "2018-031B",
        "meta_epoch": "2025-12-15T08:18:31.792320",
        "meta_mean_motion": 14.76442267,
        "meta_eccentricity": 0.00018518,
        "meta_inclination": 98.0796,
        "meta_ra_of_asc_node": 47.0131,
        "meta_arg_of_pericenter": 309.4603,
        "meta_mean_anomaly": 50.6442,
        "meta_ephemeris_type": 0,
        "meta_classification_type": "U",
        "meta_norad_cat_id": 43260,
        "meta_element_set_no": 999,
        "meta_rev_at_epoch": 41556,
        "meta_bstar": 0.00014788721,
        "meta_mean_motion_dot": 9.77e-06,
        "meta_mean_motion_ddot": 0,
        "tle_line1": "1 43260U 18031B   25349.34620130  .00000977  00000+0  14789-3 0  9994",
        "tle_line2": "2 43260  98.0796  47.0131 0001851 309.4603  50.6442 14.76442267415567"
      },
      "geometry": {
        "type": "Point",
        "coordinates": [
          45.80159218931566,
          13.985890292177162
        ]
      }
    },
    {
      "type": "Feature",
      "properties": {
        "norad_id": 43262,
        "name": "GAOFEN-1 04",
        "group": "resource",
        "lat": 35.70851447870969,
        "lon": -126.13967071850392,
        "alt_km": 638.0694342288925,
        "timestamp": "2025-12-16T03:53:26.716529+00:00",
        "meta_object_name": "GAOFEN-1 04",
        "meta_object_id": "2018-031D",
        "meta_epoch": "2025-12-15T07:43:25.807008",
        "meta_mean_motion": 14.76457232,
        "meta_eccentricity": 9.526e-05,
        "meta_inclination": 98.0808,
        "meta_ra_of_asc_node": 47.1583,
        "meta_arg_of_pericenter": 59.149,
        "meta_mean_anomaly": 300.9813,
        "meta_ephemeris_type": 0,
        "meta_classification_type": "U",
        "meta_norad_cat_id": 43262,
        "meta_element_set_no": 999,
        "meta_rev_at_epoch": 41555,
        "meta_bstar": 0.00017481842,
        "meta_mean_motion_dot": 1.165e-05,
        "meta_mean_motion_ddot": 0,
        "tle_line1": "1 43262U 18031D   25349.32182647  .00001165  00000+0  17482-3 0  9993",
        "tle_line2": "2 43262  98.0808  47.1583 0000952  59.1490 300.9813 14.76457232415559"
      },
      "geometry": {
        "type": "Point",
        "coordinates": [
          -126.13967071850392,
          35.70851447870969
        ]
      }
    },
    {
      "type": "Feature",
      "properties": {
        "norad_id": 43437,
        "name": "SENTINEL-3B",
        "group": "resource",
        "lat": 57.6937670613433,
        "lon": 41.407094310241355,
        "alt_km": 796.1514179632113,
        "timestamp": "2025-12-16T03:53:26.716540+00:00",
        "meta_object_name": "SENTINEL-3B",
        "meta_object_id": "2018-039A",
        "meta_epoch": "2025-12-15T04:03:09.890208",
        "meta_mean_motion": 14.26734832,
        "meta_eccentricity": 0.00016341,
        "meta_inclination": 98.6266,
        "meta_ra_of_asc_node": 54.3194,
        "meta_arg_of_pericenter": 99.3535,
        "meta_mean_anomaly": 260.783,
        "meta_ephemeris_type": 0,
        "meta_classification_type": "U",
        "meta_norad_cat_id": 43437,
        "meta_element_set_no": 999,
        "meta_rev_at_epoch": 39788,
        "meta_bstar": 7.3329295e-05,
        "meta_mean_motion_dot": 1.34e-06,
        "meta_mean_motion_ddot": 0,
        "tle_line1": "1 43437U 18039A   25349.16886447  .00000134  00000+0  73329-4 0  9994",
        "tle_line2": "2 43437  98.6266  54.3194 0001634  99.3535 260.7830 14.26734832397885"
      },
      "geometry": {
        "type": "Point",
        "coordinates": [
          41.407094310241355,
          57.6937670613433
        ]
      }
    },
    {
      "type": "Feature",
      "properties": {
        "norad_id": 43461,
        "name": "GAOFEN-5 01",
        "group": "resource",
        "lat": 75.16700457012634,
        "lon": 167.25715591918538,
        "alt_km": 685.069848129865,
        "timestamp": "2025-12-16T03:53:26.716550+00:00",
        "meta_object_name": "GAOFEN-5 01",
        "meta_object_id": "2018-043A",
        "meta_epoch": "2025-12-15T07:41:32.362944",
        "meta_mean_motion": 14.60412576,
        "meta_eccentricity": 7.784e-05,
        "meta_inclination": 98.4328,
        "meta_ra_of_asc_node": 312.3329,
        "meta_arg_of_pericenter": 329.6302,
        "meta_mean_anomaly": 30.4852,
        "meta_ephemeris_type": 0,
        "meta_classification_type": "U",
        "meta_norad_cat_id": 43461,
        "meta_element_set_no": 999,
        "meta_rev_at_epoch": 40485,
        "meta_bstar": 0.00010795371,
        "meta_mean_motion_dot": 4.74e-06,
        "meta_mean_motion_ddot": 0,
        "tle_line1": "1 43461U 18043A   25349.32051346  .00000474  00000+0  10795-3 0  9990",
        "tle_line2": "2 43461  98.4328 312.3329 0000778 329.6302  30.4852 14.60412576404853"
      },
      "geometry": {
        "type": "Point",
        "coordinates": [
          167.25715591918538,
          75.16700457012634
        ]
      }
    },
    {
      "type": "Feature",
      "properties": {
        "norad_id": 43484,
        "name": "GAOFEN-6",
        "group": "resource",
        "lat": -62.81685311249908,
        "lon": 69.80080163786351,
        "alt_km": 651.5673207855016,
        "timestamp": "2025-12-16T03:53:26.716560+00:00",
        "meta_object_name": "GAOFEN-6",
        "meta_object_id": "2018-048A",
        "meta_epoch": "2025-12-15T08:39:47.260224",
        "meta_mean_motion": 14.76574832,
        "meta_eccentricity": 0.00131125,
        "meta_inclination": 97.8031,
        "meta_ra_of_asc_node": 53.5396,
        "meta_arg_of_pericenter": 56.1221,
        "meta_mean_anomaly": 304.1234,
        "meta_ephemeris_type": 0,
        "meta_classification_type": "U",
        "meta_norad_cat_id": 43484,
        "meta_element_set_no": 999,
        "meta_rev_at_epoch": 40626,
        "meta_bstar": 0.00021832308,
        "meta_mean_motion_dot": 1.476e-05,
        "meta_mean_motion_ddot": 0,
        "tle_line1": "1 43484U 18048A   25349.36096366  .00001476  00000+0  21832-3 0  9992",
        "tle_line2": "2 43484  97.8031  53.5396 0013112  56.1221 304.1234 14.76574832406261"
      },
      "geometry": {
        "type": "Point",
        "coordinates": [
          69.80080163786351,
          -62.81685311249908
        ]
      }
    },
    {
      "type": "Feature",
      "properties": {
        "norad_id": 43585,
        "name": "GAOFEN-11 01",
        "group": "resource",
        "lat": -79.94832903891418,
        "lon": 98.20949853888177,
        "alt_km": 423.43986359689006,
        "timestamp": "2025-12-16T03:53:26.716571+00:00",
        "meta_object_name": "GAOFEN-11 01",
        "meta_object_id": "2018-063A",
        "meta_epoch": "2025-12-15T08:05:48.272928",
        "meta_mean_motion": 15.49299058,
        "meta_eccentricity": 0.00041594,
        "meta_inclination": 97.1565,
        "meta_ra_of_asc_node": 52.2503,
        "meta_arg_of_pericenter": 300.5395,
        "meta_mean_anomaly": 59.5446,
        "meta_ephemeris_type": 0,
        "meta_classification_type": "U",
        "meta_norad_cat_id": 43585,
        "meta_element_set_no": 999,
        "meta_rev_at_epoch": 41182,
        "meta_bstar": 0.00020436983,
        "meta_mean_motion_dot": 0.00011088,
        "meta_mean_motion_ddot": 0,
        "tle_line1": "1 43585U 18063A   25349.33736427  .00011088  00000+0  20437-3 0  9997",
        "tle_line2": "2 43585  97.1565  52.2503 0004159 300.5395  59.5446 15.49299058411822"
      },
      "geometry": {
        "type": "Point",
        "coordinates": [
          98.20949853888177,
          -79.94832903891418
        ]
      }
    },
    {
      "type": "Feature",
      "properties": {
        "norad_id": 43613,
        "name": "ICESAT-2",
        "group": "resource",
        "lat": 65.53290287218607,
        "lon": 66.07631966690813,
        "alt_km": 472.85074439604523,
        "timestamp": "2025-12-16T03:53:26.716581+00:00",
        "meta_object_name": "ICESAT-2",
        "meta_object_id": "2018-070A",
        "meta_epoch": "2025-12-15T06:57:47.924928",
        "meta_mean_motion": 15.28306028,
        "meta_eccentricity": 0.00026498,
        "meta_inclination": 92.005,
        "meta_ra_of_asc_node": 241.4255,
        "meta_arg_of_pericenter": 136.9083,
        "meta_mean_anomaly": 223.2375,
        "meta_ephemeris_type": 0,
        "meta_classification_type": "U",
        "meta_norad_cat_id": 43613,
        "meta_element_set_no": 999,
        "meta_rev_at_epoch": 40437,
        "meta_bstar": 0.0003027198,
        "meta_mean_motion_dot": 8.344e-05,
        "meta_mean_motion_ddot": 0,
        "tle_line1": "1 43613U 18070A   25349.29013802  .00008344  00000+0  30272-3 0  9996",
        "tle_line2": "2 43613  92.0050 241.4255 0002649 136.9083 223.2375 15.28306028404376"
      },
      "geometry": {
        "type": "Point",
        "coordinates": [
          66.07631966690813,
          65.53290287218607
        ]
      }
    }
  ]
}